[{"OBJECT_NAME":"STARLINK-30537","OBJECT_ID":"2023-153A","EPOCH":"2026-03-09T22:00:01.999584","MEAN_MOTION":15.26720702,"ECCENTRICITY":0.00014542,"INCLINATION":43.0024,"RA_OF_ASC_NODE":65.6815,"ARG_OF_PERICENTER":260.7337,"MEAN_ANOMALY":46.9582,"EPHEMERIS_TYPE":0,"CLASSIFICATION_TYPE":"U","NORAD_CAT_ID":57991,"ELEMENT_SET_NO":999,"REV_AT_EPOCH":578,"BSTAR":0.0017642455,"MEAN_MOTION_DOT":0.0004734,"MEAN_MOTION_DDOT":0},{"OBJECT_NAME":"TIANMU-1 22","OBJECT_ID":"2023-208D","EPOCH":"2026-03-09T22:39:05.738688","MEAN_MOTION":15.29457749,"ECCENTRICITY":0.00031332,"INCLINATION":97.4379,"RA_OF_ASC_NODE":184.9419,"ARG_OF_PERICENTER":351.9312,"MEAN_ANOMALY":8.1877,"EPHEMERIS_TYPE":0,"CLASSIFICATION_TYPE":"U","NORAD_CAT_ID":58663,"ELEMENT_SET_NO":999,"REV_AT_EPOCH":12215,"BSTAR":0.00038239675,"MEAN_MOTION_DOT":0.00010851,"MEAN_MOTION_DDOT":0}]
